CORAL                   
1 67684U 98067YA  26078.98155535  .00070349  00000+0  98954-3 0  9995
2 67684  51.6314  20.1340 0012039 211.9021 148.1242 15.55939936  6399
GXIBA-1                 
1 67685U 98067YB  26079.08545914  .00037303  00000+0  58823-3 0  9996
2 67685  51.6332  20.0774 0011650 219.8961 140.1173 15.53095555  6403
UITMSAT-2               
1 67686U 98067YC  26079.20424217  .00036971  00000+0  56833-3 0  9992
2 67686  51.6331  19.3725 0008504 189.8163 170.2663 15.53839493  6421
HMU-SAT2                
1 67687U 98067YD  26079.08899384  .00037794  00000+0  60184-3 0  9998
2 67687  51.6329  20.1038 0008192 192.6880 167.3905 15.52855459  6321
LEOPARD                 
1 67688U 98067YE  26079.20876189  .00033610  00000+0  52397-3 0  9991
2 67688  51.6333  19.4024 0008352 190.6023 169.4793 15.53500340  6345
CREW DRAGON 12          
1 67796U 26031A   26079.16224065  .00008474  00000+0  16520-3 0  9996
2 67796  51.6345  20.5881 0006234 211.0869 148.9751 15.48388697557873
