CCSDS_OMM_VERS = 2.0
CREATION_DATE  = 
ORIGINATOR     = 

OBJECT_NAME    = CORAL
OBJECT_ID      = 1998-067YA
CENTER_NAME    = EARTH
REF_FRAME      = TEME
TIME_SYSTEM    = UTC
MEAN_ELEMENT_THEORY = SGP/SGP4

EPOCH          = 2026-03-19T23:33:26.382240
MEAN_MOTION    = 15.55939936
ECCENTRICITY   = .0012039
INCLINATION    = 51.6314
RA_OF_ASC_NODE = 20.1340
ARG_OF_PERICENTER = 211.9021
MEAN_ANOMALY   = 148.1242

EPHEMERIS_TYPE = 0
CLASSIFICATION_TYPE = U
NORAD_CAT_ID   = 67684
ELEMENT_SET_NO = 999
REV_AT_EPOCH   = 639
BSTAR          = .98954E-3
MEAN_MOTION_DOT = .70349E-3
MEAN_MOTION_DDOT = 0

CCSDS_OMM_VERS = 2.0
CREATION_DATE  = 
ORIGINATOR     = 

OBJECT_NAME    = GXIBA-1
OBJECT_ID      = 1998-067YB
CENTER_NAME    = EARTH
REF_FRAME      = TEME
TIME_SYSTEM    = UTC
MEAN_ELEMENT_THEORY = SGP/SGP4

EPOCH          = 2026-03-20T02:03:03.669696
MEAN_MOTION    = 15.53095555
ECCENTRICITY   = .001165
INCLINATION    = 51.6332
RA_OF_ASC_NODE = 20.0774
ARG_OF_PERICENTER = 219.8961
MEAN_ANOMALY   = 140.1173

EPHEMERIS_TYPE = 0
CLASSIFICATION_TYPE = U
NORAD_CAT_ID   = 67685
ELEMENT_SET_NO = 999
REV_AT_EPOCH   = 640
BSTAR          = .58823E-3
MEAN_MOTION_DOT = .37303E-3
MEAN_MOTION_DDOT = 0

CCSDS_OMM_VERS = 2.0
CREATION_DATE  = 
ORIGINATOR     = 

OBJECT_NAME    = UITMSAT-2
OBJECT_ID      = 1998-067YC
CENTER_NAME    = EARTH
REF_FRAME      = TEME
TIME_SYSTEM    = UTC
MEAN_ELEMENT_THEORY = SGP/SGP4

EPOCH          = 2026-03-20T04:54:06.523488
MEAN_MOTION    = 15.53839493
ECCENTRICITY   = .0008504
INCLINATION    = 51.6331
RA_OF_ASC_NODE = 19.3725
ARG_OF_PERICENTER = 189.8163
MEAN_ANOMALY   = 170.2663

EPHEMERIS_TYPE = 0
CLASSIFICATION_TYPE = U
NORAD_CAT_ID   = 67686
ELEMENT_SET_NO = 999
REV_AT_EPOCH   = 642
BSTAR          = .56833E-3
MEAN_MOTION_DOT = .36971E-3
MEAN_MOTION_DDOT = 0

CCSDS_OMM_VERS = 2.0
CREATION_DATE  = 
ORIGINATOR     = 

OBJECT_NAME    = HMU-SAT2
OBJECT_ID      = 1998-067YD
CENTER_NAME    = EARTH
REF_FRAME      = TEME
TIME_SYSTEM    = UTC
MEAN_ELEMENT_THEORY = SGP/SGP4

EPOCH          = 2026-03-20T02:08:09.067776
MEAN_MOTION    = 15.52855459
ECCENTRICITY   = .0008192
INCLINATION    = 51.6329
RA_OF_ASC_NODE = 20.1038
ARG_OF_PERICENTER = 192.6880
MEAN_ANOMALY   = 167.3905

EPHEMERIS_TYPE = 0
CLASSIFICATION_TYPE = U
NORAD_CAT_ID   = 67687
ELEMENT_SET_NO = 999
REV_AT_EPOCH   = 632
BSTAR          = .60184E-3
MEAN_MOTION_DOT = .37794E-3
MEAN_MOTION_DDOT = 0

CCSDS_OMM_VERS = 2.0
CREATION_DATE  = 
ORIGINATOR     = 

OBJECT_NAME    = LEOPARD
OBJECT_ID      = 1998-067YE
CENTER_NAME    = EARTH
REF_FRAME      = TEME
TIME_SYSTEM    = UTC
MEAN_ELEMENT_THEORY = SGP/SGP4

EPOCH          = 2026-03-20T05:00:37.027296
MEAN_MOTION    = 15.53500340
ECCENTRICITY   = .0008352
INCLINATION    = 51.6333
RA_OF_ASC_NODE = 19.4024
ARG_OF_PERICENTER = 190.6023
MEAN_ANOMALY   = 169.4793

EPHEMERIS_TYPE = 0
CLASSIFICATION_TYPE = U
NORAD_CAT_ID   = 67688
ELEMENT_SET_NO = 999
REV_AT_EPOCH   = 634
BSTAR          = .52397E-3
MEAN_MOTION_DOT = .3361E-3
MEAN_MOTION_DDOT = 0

CCSDS_OMM_VERS = 2.0
CREATION_DATE  = 
ORIGINATOR     = 

OBJECT_NAME    = CREW DRAGON 12
OBJECT_ID      = 2026-031A
CENTER_NAME    = EARTH
REF_FRAME      = TEME
TIME_SYSTEM    = UTC
MEAN_ELEMENT_THEORY = SGP/SGP4

EPOCH          = 2026-03-20T03:53:37.592160
MEAN_MOTION    = 15.48388697
ECCENTRICITY   = .0006234
INCLINATION    = 51.6345
RA_OF_ASC_NODE = 20.5881
ARG_OF_PERICENTER = 211.0869
MEAN_ANOMALY   = 148.9751

EPHEMERIS_TYPE = 0
CLASSIFICATION_TYPE = U
NORAD_CAT_ID   = 67796
ELEMENT_SET_NO = 999
REV_AT_EPOCH   = 55787
BSTAR          = .1652E-3
MEAN_MOTION_DOT = .8474E-4
MEAN_MOTION_DDOT = 0

